BEIDOU 3 (C01)          
1 36287U 10001A   21352.59355199 -.00000261  00000+0  00000+0 0  9995
2 36287   1.7796  44.8811 0001354  77.2733 319.3857  1.00274204 43706
BEIDOU 5 (C06)          
1 36828U 10036A   21352.46680023 -.00000024  00000+0  00000+0 0  9994
2 36828  54.1773 177.8956 0027084 177.2054   5.0211  1.00299141 41760
BEIDOU 6 (C04)          
1 37210U 10057A   21352.62521623 -.00000093  00000+0  00000+0 0  9997
2 37210   0.8480  47.1985 0006879 161.8459 263.5147  1.00270497 40825
BEIDOU 7 (C07)          
1 37256U 10068A   21352.56069111 -.00000200  00000+0  00000+0 0  9991
2 37256  50.5380 291.8111 0015699 189.8860 273.0153  1.00250398 40338
BEIDOU 8 (C08)          
1 37384U 11013A   21352.44278640 -.00000183  00000+0  00000+0 0  9990
2 37384  60.0328  56.0598 0019288 192.0198 102.5853  1.00258134 39209
BEIDOU 9 (C09)          
1 37763U 11038A   21352.49563123  .00000015  00000+0  00000+0 0  9999
2 37763  54.4678 180.3621 0086283 225.2897 315.7756  1.00272113 38186
BEIDOU 10 (C10)         
1 37948U 11073A   21351.91740962 -.00000157  00000+0  00000+0 0  9995
2 37948  50.6455 291.4496 0078936 219.4029 359.3139  1.00293776 36932
BEIDOU 11 (C05)         
1 38091U 12008A   21352.63938032  .00000074  00000+0  00000+0 0  9998
2 38091   1.9600  71.5333 0005315 267.6409  37.2314  1.00275829 36013
BEIDOU 12 (C11)         
1 38250U 12018A   21351.10713385 -.00000087  00000+0  00000+0 0  9994
2 38250  56.7336 359.5839 0024943 251.6300 103.7485  1.86234234 65687
BEIDOU 13 (C12)         
1 38251U 12018B   21352.13471118 -.00000085  00000+0  00000+0 0  9992
2 38251  56.6528 358.8866 0015770 254.4390 114.1815  1.86234028 65718
BEIDOU 15 (C14)         
1 38775U 12050B   21352.35889897 -.00000013  00000+0  00000+0 0  9991
2 38775  55.2999 117.7849 0011545 326.7541  29.1722  1.86231214 63080
BEIDOU 16 (C02)         
1 38953U 12059A   21352.60634955 -.00000155  00000+0  00000+0 0  9996
2 38953   1.5447  84.5064 0011095 274.3872  30.7575  1.00268502 33587
BEIDOU 17 (C31)         
1 40549U 15019A   21352.27119735 -.00000188  00000+0  00000+0 0  9992
2 40549  52.1961 314.8590 0036767 191.5545 134.3573  1.00281559 24617
BEIDOU 18 (C57)         
1 40748U 15037A   21351.18290829 -.00000089  00000+0  00000+0 0  9996
2 40748  55.9125 357.8939 0003248 323.1379  37.0513  1.86233287 43524
BEIDOU 19 (C58)         
1 40749U 15037B   21352.04504957 -.00000088  00000+0  00000+0 0  9992
2 40749  55.9150 357.8548 0006285 297.2198  56.2600  1.86231995 43527
BEIDOU 20 (C18)         
1 40938U 15053A   21352.26018463 -.00000136  00000+0  00000+0 0  9990
2 40938  51.7828 277.9579 0043446 195.2845 162.5349  1.00287540 22885
BEIDOU IGSO-6 (C13)     
1 41434U 16021A   21352.51219389 -.00000167  00000+0  00000+0 0  9990
2 41434  57.8351  54.7176 0045164 214.8259  98.1951  1.00276980 21018
BEIDOU-2 G7 (C03)       
1 41586U 16037A   21352.60081309 -.00000335  00000+0  00000+0 0  9991
2 41586   1.5791  66.1819 0007653 358.2534 349.8289  1.00269281 20320
BEIDOU-3 M1 (C19)       
1 43001U 17069A   21351.60057388 -.00000014  00000+0  00000+0 0  9994
2 43001  55.4532 117.7869 0007563 285.4477  78.1688  1.86231566 28018
BEIDOU-3 M2 (C20)       
1 43002U 17069B   21352.01358009 -.00000014  00000+0  00000+0 0  9995
2 43002  55.4529 117.8077 0005796 316.7498   6.9910  1.86231284 28007
BEIDOU-3 M3 (C27)       
1 43107U 18003A   21351.58086708 -.00000090  00000+0  00000+0 0  9999
2 43107  55.3588 358.8783 0003330  40.1128 159.4816  1.86232382 26768
BEIDOU-3 M4 (C28)       
1 43108U 18003B   21352.55888664 -.00000088  00000+0  00000+0 0  9996
2 43108  55.3535 358.8350 0004293 251.2351 288.9780  1.86230815 26782
BEIDOU-3 M5 (C21)       
1 43207U 18018A   21351.66975166 -.00000014  00000+0  00000+0 0  9996
2 43207  55.4130 117.9040 0003863 351.6969  12.9059  1.86231377 26155
BEIDOU-3 M6 (C22)       
1 43208U 18018B   21351.72953045 -.00000014  00000+0  00000+0 0  9996
2 43208  55.4118 117.9071 0005544 299.2243  60.6771  1.86231528 26155
BEIDOU-3 M7 (C29)       
1 43245U 18029A   21352.09418921 -.00000089  00000+0  00000+0 0  9991
2 43245  55.2828 356.6419 0001400 264.4574 189.6110  1.86232513 25319
BEIDOU-3 M8 (C30)       
1 43246U 18029B   21352.15604822 -.00000089  00000+0  10000-3 0  9991
2 43246  55.2781 356.6699 0004088 333.9420 207.9813  1.86232755 25306
BEIDOU IGSO-7 (C16)     
1 43539U 18057A   21351.78051586 -.00000031  00000+0  00000+0 0  9990
2 43539  55.0629 177.3170 0040091 220.6165  82.8533  1.00265646 12681
BEIDOU-3 M9 (C23)       
1 43581U 18062A   21352.51644836  .00000051  00000+0  00000+0 0  9992
2 43581  54.3332 238.2851 0003763 305.0497 328.9974  1.86231852 23057
BEIDOU-3 M10 (C24)      
1 43582U 18062B   21352.38327791  .00000050  00000+0  00000+0 0  9995
2 43582  54.3330 238.2789 0006637   5.0905 271.2650  1.86232335 23058
BEIDOU-3 M11 (C25)      
1 43602U 18067A   21352.31763307  .00000053  00000+0  00000+0 0  9996
2 43602  54.4122 236.8799 0007765   6.0948 268.0114  1.86231516 22549
BEIDOU-3 M12 (C26)      
1 43603U 18067B   21352.44930330  .00000053  00000+0  00000+0 0  9993
2 43603  54.4091 236.8426 0004886 357.5340 275.2656  1.86231429 22569
BEIDOU-3 M13 (C32)      
1 43622U 18072A   21352.44443859 -.00000013  00000+0  00000+0 0  9992
2 43622  55.3789 117.4401 0004502 274.8502  24.5323  1.86231443 22075
BEIDOU-3 M14 (C33)      
1 43623U 18072B   21352.30932958 -.00000014  00000+0  00000+0 0  9992
2 43623  55.3806 117.4366 0002298 317.8663 341.1664  1.86231461 22078
BEIDOU-3 M15 (C34)      
1 43647U 18078A   21352.04950924 -.00000089  00000+0  10000-3 0  9995
2 43647  55.1756 356.8173 0006311 346.7903  33.3407  1.86232672 21584
BEIDOU-3 M16 (C35)      
1 43648U 18078B   21352.16583524 -.00000089  00000+0  00000+0 0  9992
2 43648  55.1731 356.8196 0004092 351.2081  15.0379  1.86232133 21605
BEIDOU-3 G1 (C59)       
1 43683U 18085A   21352.40225867 -.00000257  00000+0  00000+0 0  9996
2 43683   0.8540 199.1872 0004863  49.5348 123.3759  1.00274232 11591
BEIDOU-3 M17 (C36)      
1 43706U 18093A   21352.30921060  .00000050  00000+0  00000+0 0  9998
2 43706  54.4138 238.1644 0008437 284.6743  75.3249  1.86232075 20962
BEIDOU-3 M18 (C37)      
1 43707U 18093B   21352.45783028  .00000051  00000+0  00000+0 0  9996
2 43707  54.4145 238.1497 0008172 312.4594 238.2251  1.86232283 20950
BEIDOU-3 IGSO-1 (C38)   
1 44204U 19023A   21352.41789628 -.00000226  00000+0  00000+0 0  9996
2 44204  56.2904  54.9241 0023014 192.2872 108.9995  1.00265316  9899
BEIDOU-2 G8             
1 44231U 19027A   21351.82892619 -.00000229  00000+0  00000+0 0  9992
2 44231   0.4530  60.6752 0006610 153.3726 315.4709  1.00268782  9602
BEIDOU-3 IGSO-2 (C39)   
1 44337U 19035A   21352.46658953 -.00000043  00000+0  00000+0 0  9994
2 44337  55.1021 173.3411 0020890 176.7422  22.9450  1.00255617  9238
BEIDOU-3 M23 (C45)      
1 44542U 19061A   21352.48207447  .00000051  00000+0  10000-3 0  9994
2 44542  54.6394 238.2643 0009008 344.3536 175.0643  1.86231673 15217
BEIDOU-3 M24 (C46)      
1 44543U 19061B   21351.71517906  .00000048  00000+0  10000-3 0  9990
2 44543  54.6393 238.2606 0006341 335.0201 301.2999  1.86231826 15193
BEIDOU-3 IGSO-3         
1 44709U 19073A   21352.25451361 -.00000203  00000+0  00000+0 0  9998
2 44709  57.5578 298.2609 0018469 186.6874 172.7469  1.00261831  7989
BEIDOU-3 M21            
1 44793U 19078A   21352.19663269 -.00000089  00000+0  10000-3 0  9998
2 44793  55.0234 356.8567 0005952 353.5450  79.4090  1.86232168 14072
BEIDOU-3 M22            
1 44794U 19078B   21352.21854977 -.00000089  00000+0  00000+0 0  9995
2 44794  54.9991 356.8508 0003980 343.2518  15.7185  1.86232714 14060
BEIDOU-3 M19            
1 44864U 19090A   21352.47641380 -.00000012  00000+0  00000+0 0  9993
2 44864  55.3136 117.6601 0014851 262.9442 103.4754  1.86231725 13666
BEIDOU-3 M20            
1 44865U 19090B   21352.17488265 -.00000014  00000+0  00000+0 0  9994
2 44865  55.3161 117.7005 0013038 278.7046 335.4450  1.86231644 13621
BEIDOU-3 G2             
1 45344U 20017A   21352.53378390 -.00000120  00000+0  00000+0 0  9993
2 45344   2.2173 343.7140 0000994 219.8357 156.0085  1.00270940  6808
BEIDOU-3 G3             
1 45807U 20040A   21352.03741910 -.00000332  00000+0  00000+0 0  9995
2 45807   1.8591 300.3609 0009335 353.9510 276.5819  1.00270001  5618
